HULIANWANG DIGUI 8D     
1 65167U 25174D   25230.84293082  .00000134  00000+0  21535-3 0  9998
2 65167  86.5035 354.2670 0010314 279.4781  80.5197 13.41161402   742
HULIANWANG DIGUI 8E     
1 65168U 25174E   25230.84352223  .00000140  00000+0  22519-3 0  9992
2 65168  86.4977 354.2631 0009142 285.4596  74.5537 13.41018206   746
HULIANWANG DIGUI 8F     
1 65169U 25174F   25230.91844323  .00000112  00000+0  17524-3 0  9997
2 65169  86.5030 354.2396 0009607 287.6374  72.3719 13.40957411   758
HULIANWANG DIGUI 8G     
1 65170U 25174G   25230.84394208  .00000128  00000+0  20398-3 0  9993
2 65170  86.4988 354.2641 0011034 284.7761  75.2160 13.40916979   744
HULIANWANG DIGUI 8H     
1 65171U 25174H   25230.84432972  .00000134  00000+0  21567-3 0  9991
2 65171  86.4952 354.2616 0010255 289.2417  70.7617 13.40823725   743
HULIANWANG DIGUI 8J     
1 65172U 25174J   25230.84425708  .00000121  00000+0  19147-3 0  9998
2 65172  86.4987 354.2660 0011262 284.0271  75.9620 13.40842560   740
HULIANWANG DIGUI 8K     
1 65173U 25174K   25230.77034697 -.00001297  00000+0 -23883-2 0  9992
2 65173  86.4996 354.2920 0011722 291.5966  68.3928 13.40665658   709
SHIYAN-28B 02           
1 65226U 25177A   25230.26656790  .00000432  00000+0  00000+0 0  9993
2 65226  10.9987 107.6450 0003859  51.4181 308.6356 14.29312084   134
HULIANWANG DIGUI 9A     
1 65228U 25178A   25230.95782308  .00000043  00000+0  31127-4 0  9994
2 65228  86.4969 116.3421 0008943 216.7116 143.3431 13.69117941   183
HULIANWANG DIGUI 9B     
1 65229U 25178B   25230.88467687  .00000119  00000+0  11794-3 0  9998
2 65229  86.4988 116.3708 0008555 216.3803 143.6776 13.69186951   172
HULIANWANG DIGUI 9C     
1 65230U 25178C   25230.88455809 -.00000141  00000+0 -18149-3 0  9991
2 65230  86.4925 116.3640 0008035 211.4104 148.6577 13.69319016   177
HULIANWANG DIGUI 9D     
1 65231U 25178D   25230.88444925  .00000042  00000+0  29084-4 0  9998
2 65231  86.4987 116.3706 0007543 204.4052 155.6751 13.69441402   173
HULIANWANG DIGUI 9E     
1 65232U 25178E   25230.88438620  .00000042  00000+0  29104-4 0  9997
2 65232  86.4967 116.3684 0007221 203.2693 156.8141 13.69509992   173
CZ-6A R/B               
1 65233U 25178F   25230.93379416  .00000117  00000+0  70079-4 0  9991
2 65233  86.5080 116.3336 0104949 111.1016 250.1416 13.94577636   199
